49212,ONEWEB-0346,2021,109.2,148.0,+,87.92,Active,1,LEO,Kazakhstan,UK,Commercial,Communications,Soyuz,1 49212U 21083AC  24014.42683744  .00000080  00000+0  17046-3 0  9999,2 49212  87.9236 151.5210 0001051  96.9552 263.1700 13.18685100113370,13.186851,0.0001051,LEO
49213,ONEWEB-0348,2021,109.03,148.0,+,87.92,Active,1,LEO,Kazakhstan,UK,Commercial,Communications,Soyuz,1 49213U 21083AD  24014.27481099  .00000517  00000+0  12388-2 0  9990,2 49213  87.9176  90.5936 0001256  89.3351 270.7926 13.20768811120007,13.20768811,0.0001256,LEO
49214,ONEWEB-0350,2021,109.63,148.0,+,87.9,Active,1,LEO,Kazakhstan,UK,Commercial,Communications,Soyuz,1 49214U 21083AE  24014.39327061  .00000392  00000+0  10378-2 0  9990,2 49214  87.9013 136.3253 0001449  90.2107 269.9189 13.13471097114781,13.13471097,0.0001449,LEO
49215,ONEWEB-0351,2021,109.03,148.0,+,87.92,Active,1,LEO,Kazakhstan,UK,Commercial,Communications,Soyuz,1 49215U 21083AF  24014.57152178 -.00000028  00000+0 -10145-3 0  9997,2 49215  87.9180  90.5389 0002242 101.8772 258.2613 13.20771146120008,13.20771146,0.0002242,LEO
49216,ONEWEB-0352,2021,109.63,148.0,+,87.9,Active,1,LEO,Kazakhstan,UK,Commercial,Communications,Soyuz,1 49216U 21083AG  24014.37422608 -.00000137  00000+0 -41023-3 0  9994,2 49216  87.9015 136.3554 0001833 107.1406 252.9923 13.13466302114877,13.13466302,0.0001833,LEO
49217,ONEWEB-0354,2021,109.03,148.0,+,87.92,Active,1,LEO,Kazakhstan,UK,Commercial,Communications,Soyuz,1 49217U 21083AH  24014.59677131  .00000032  00000+0  45676-4 0  9993,2 49217  87.9184  90.5133 0001892  91.6387 268.4963 13.20773237120047,13.20773237,0.0001892,LEO
49218,ONEWEB-0355,2021,109.63,148.0,+,87.9,Active,1,LEO,Kazakhstan,UK,Commercial,Communications,Soyuz,1 49218U 21083AJ  24014.40440268  .00000313  00000+0  82165-3 0  9998,2 49218  87.9020 136.3488 0001658  99.0497 261.0819 13.13472255114751,13.13472255,0.0001658,LEO
49219,ONEWEB-0357,2021,109.03,148.0,+,87.92,Active,1,LEO,Kazakhstan,UK,Commercial,Communications,Soyuz,1 49219U 21083AK  24014.59361199  .00000019  00000+0  15666-4 0  9990,2 49219  87.9181  90.5377 0001786 100.8868 259.2466 13.20772980120045,13.2077298,0.0001786,LEO
